CTC1_L_00577001-01
1 10029U 23082GH  26070.40840278  .00000000  00000+0  00000-0 0  9994
2 10029  89.0000   0.0000 0000000   0.0000   0.0000 13.25179682    16
CTC1_L_00577002-01
1 10030U 25500DT  26070.40840278  .00000000  00000+0  00000-0 0  9993
2 10030  89.0000  10.0000 0000000   0.0000  40.0000 13.25179682    13
CTC1_L_00577003-01
1 10031U 25979PI  26070.40840278  .00000000  00000+0  00000-0 0  9994
2 10031  89.0000  20.0000 0000000   0.0000  80.0000 13.25179682    19
CTC1_L_00577004-01
1 10032U 24059KF  26070.40840278  .00000000  00000+0  00000-0 0  9993
2 10032  89.0000  30.0000 0000000   0.0000 120.0000 13.25179682    16
CTC1_L_00577005-01
1 10033U 26608VT  26070.40840278  .00000000  00000+0  00000-0 0  9996
2 10033  89.0000  40.0000 0000000   0.0000 160.0000 13.25179682    12
CTC1_L_00577006-01
1 10034U 23229TO  26070.40840278  .00000000  00000+0  00000-0 0  9993
2 10034  89.0000  50.0000 0000000   0.0000 200.0000 13.25179682    19
CTC1_L_00577007-01
1 10035U 26737US  26070.40840278  .00000000  00000+0  00000-0 0  9991
2 10035  89.0000  60.0000 0000000   0.0000 240.0000 13.25179682    15
CTC1_L_00577008-01
1 10036U 24305AH  26070.40840278  .00000000  00000+0  00000-0 0  9991
2 10036  89.0000  70.0000 0000000   0.0000 280.0000 13.25179682    11
CTC1_L_00577009-01
1 10037U 22712KP  26070.40840278  .00000000  00000+0  00000-0 0  9992
2 10037  89.0000  80.0000 0000000   0.0000 320.0000 13.25179682    18
CTC1_L_00577010-01
1 10038U 26260WP  26070.40840278  .00000000  00000+0  00000-0 0  9995
2 10038  89.0000  90.0000 0000000   0.0000   0.0000 13.25179682    15
CTC1_L_00577011-01
1 10039U 24616XG  26070.40840278  .00000000  00000+0  00000-0 0  9999
2 10039  89.0000 100.0000 0000000   0.0000  40.0000 13.25179682    12
CTC1_L_00577012-01
1 10040U 24083WO  26070.40840278  .00000000  00000+0  00000-0 0  9999
2 10040  89.0000 110.0000 0000000   0.0000  80.0000 13.25179682    19
CTC1_L_00577013-01
1 10041U 24476DI  26070.40840278  .00000000  00000+0  00000-0 0  9996
2 10041  89.0000 120.0000 0000000   0.0000 120.0000 13.25179682    16
CTC1_L_00577014-01
1 10042U 26121CT  26070.40840278  .00000000  00000+0  00000-0 0  9996
2 10042  89.0000 130.0000 0000000   0.0000 160.0000 13.25179682    12
CTC1_L_00577015-01
1 10043U 26406KL  26070.40840278  .00000000  00000+0  00000-0 0  9993
2 10043  89.0000 140.0000 0000000   0.0000 200.0000 13.25179682    19
CTC1_L_00577016-01
1 10044U 24503DS  26070.40840278  .00000000  00000+0  00000-0 0  9990
2 10044  89.0000 150.0000 0000000   0.0000 240.0000 13.25179682    15
CTC1_L_00577017-01
1 10045U 22144LF  26070.40840278  .00000000  00000+0  00000-0 0  9990
2 10045  89.0000 160.0000 0000000   0.0000 280.0000 13.25179682    11
CTC1_L_00577018-01
1 10046U 22924ZH  26070.40840278  .00000000  00000+0  00000-0 0  9997
2 10046  89.0000 170.0000 0000000   0.0000 320.0000 13.25179682    18
CTC1_L_00577019-01
1 10047U 24453DK  26070.40840278  .00000000  00000+0  00000-0 0  9997
2 10047  89.0000 180.0000 0000000   0.0000   0.0000 13.25179682    15
CTC1_L_00577020-01
1 10048U 23696EH  26070.40840278  .00000000  00000+0  00000-0 0  9996
2 10048  89.0000 190.0000 0000000   0.0000  40.0000 13.25179682    11
CTC1_L_00577021-01
1 10049U 23556BP  26070.40840278  .00000000  00000+0  00000-0 0  9992
2 10049  89.0000 200.0000 0000000   0.0000  80.0000 13.25179682    18
CTC1_L_00577022-01
1 10050U 24085E   26070.40840278  .00000000  00000+0  00000-0 0  9992
2 10050  89.0000 210.0000 0000000   0.0000 120.0000 13.25179682    16
CTC1_L_00577023-01
1 10051U 26620GO  26070.40840278  .00000000  00000+0  00000-0 0  9990
2 10051  89.0000 220.0000 0000000   0.0000 160.0000 13.25179682    12
CTC1_L_00577024-01
1 10052U 22670CM  26070.40840278  .00000000  00000+0  00000-0 0  9992
2 10052  89.0000 230.0000 0000000   0.0000 200.0000 13.25179682    19
CTC1_L_00577025-01
1 10053U 24095BH  26070.40840278  .00000000  00000+0  00000-0 0  9996
2 10053  89.0000 240.0000 0000000   0.0000 240.0000 13.25179682    15
CTC1_L_00577026-01
1 10054U 24610FT  26070.40840278  .00000000  00000+0  00000-0 0  9990
2 10054  89.0000 250.0000 0000000   0.0000 280.0000 13.25179682    11
CTC1_L_00577027-01
1 10055U 26332AP  26070.40840278  .00000000  00000+0  00000-0 0  9994
2 10055  89.0000 260.0000 0000000   0.0000 320.0000 13.25179682    18
CTC1_L_00577028-01
1 10056U 24747UP  26070.40840278  .00000000  00000+0  00000-0 0  9993
2 10056  89.0000 270.0000 0000000   0.0000   0.0000 13.25179682    15
CTC1_L_00577029-01
1 10057U 23467WP  26070.40840278  .00000000  00000+0  00000-0 0  9992
2 10057  89.0000 280.0000 0000000   0.0000  40.0000 13.25179682    11
CTC1_L_00577030-01
1 10058U 26063PQ  26070.40840278  .00000000  00000+0  00000-0 0  9998
2 10058  89.0000 290.0000 0000000   0.0000  80.0000 13.25179682    17
CTC1_L_00577031-01
1 10059U 25563TR  26070.40840278  .00000000  00000+0  00000-0 0  9993
2 10059  89.0000 300.0000 0000000   0.0000 120.0000 13.25179682    15
CTC1_L_00577032-01
1 10060U 25523KH  26070.40840278  .00000000  00000+0  00000-0 0  9991
2 10060  89.0000 310.0000 0000000   0.0000 160.0000 13.25179682    12
CTC1_L_00577033-01
1 10061U 22205CJ  26070.40840278  .00000000  00000+0  00000-0 0  9996
2 10061  89.0000 320.0000 0000000   0.0000 200.0000 13.25179682    19
CTC1_L_00577034-01
1 10062U 23179WL  26070.40840278  .00000000  00000+0  00000-0 0  9998
2 10062  89.0000 330.0000 0000000   0.0000 240.0000 13.25179682    15
CTC1_L_00577035-01
1 10063U 22239PO  26070.40840278  .00000000  00000+0  00000-0 0  9995
2 10063  89.0000 340.0000 0000000   0.0000 280.0000 13.25179682    11
CTC1_L_00577036-01
1 10064U 24996KD  26070.40840278  .00000000  00000+0  00000-0 0  9998
2 10064  89.0000 350.0000 0000000   0.0000 320.0000 13.25179682    18
